CCSDS_OMM_VERS = 2.0
CREATION_DATE  = 
ORIGINATOR     = 

OBJECT_NAME    = SL-3 R/B
OBJECT_ID      = 1982-079B
CENTER_NAME    = EARTH
REF_FRAME      = TEME
TIME_SYSTEM    = UTC
MEAN_ELEMENT_THEORY = SGP/SGP4

EPOCH          = 2026-03-25T19:24:52.468704
MEAN_MOTION    = 15.25013148
ECCENTRICITY   = .0025548
INCLINATION    = 81.1481
RA_OF_ASC_NODE = 174.0452
ARG_OF_PERICENTER = 111.7030
MEAN_ANOMALY   = 248.6928

EPHEMERIS_TYPE = 0
CLASSIFICATION_TYPE = U
NORAD_CAT_ID   = 13403
ELEMENT_SET_NO = 999
REV_AT_EPOCH   = 38015
BSTAR          = .19535E-3
MEAN_MOTION_DOT = .4947E-4
MEAN_MOTION_DDOT = 0

CCSDS_OMM_VERS = 2.0
CREATION_DATE  = 
ORIGINATOR     = 

OBJECT_NAME    = SL-14 R/B
OBJECT_ID      = 1982-092B
CENTER_NAME    = EARTH
REF_FRAME      = TEME
TIME_SYSTEM    = UTC
MEAN_ELEMENT_THEORY = SGP/SGP4

EPOCH          = 2026-03-25T21:14:33.734688
MEAN_MOTION    = 14.86680484
ECCENTRICITY   = .0018895
INCLINATION    = 82.5663
RA_OF_ASC_NODE = 126.2495
ARG_OF_PERICENTER = 245.5846
MEAN_ANOMALY   = 287.0070

EPHEMERIS_TYPE = 0
CLASSIFICATION_TYPE = U
NORAD_CAT_ID   = 13553
ELEMENT_SET_NO = 999
REV_AT_EPOCH   = 33133
BSTAR          = .44101E-4
MEAN_MOTION_DOT = .417E-5
MEAN_MOTION_DDOT = 0

CCSDS_OMM_VERS = 2.0
CREATION_DATE  = 
ORIGINATOR     = 

OBJECT_NAME    = SL-3 R/B
OBJECT_ID      = 1983-010B
CENTER_NAME    = EARTH
REF_FRAME      = TEME
TIME_SYSTEM    = UTC
MEAN_ELEMENT_THEORY = SGP/SGP4

EPOCH          = 2026-03-25T03:48:53.132256
MEAN_MOTION    = 15.46876068
ECCENTRICITY   = .00163955
INCLINATION    = 81.1050
RA_OF_ASC_NODE = 343.2767
ARG_OF_PERICENTER = 359.1120
MEAN_ANOMALY   = 1.0093

EPHEMERIS_TYPE = 0
CLASSIFICATION_TYPE = U
NORAD_CAT_ID   = 13819
ELEMENT_SET_NO = 999
REV_AT_EPOCH   = 36033
BSTAR          = .27048244E-3
MEAN_MOTION_DOT = .13701E-3
MEAN_MOTION_DDOT = 0

CCSDS_OMM_VERS = 2.0
CREATION_DATE  = 
ORIGINATOR     = 

OBJECT_NAME    = SL-3 R/B
OBJECT_ID      = 1983-075B
CENTER_NAME    = EARTH
REF_FRAME      = TEME
TIME_SYSTEM    = UTC
MEAN_ELEMENT_THEORY = SGP/SGP4

EPOCH          = 2026-03-25T19:35:05.393760
MEAN_MOTION    = 15.38787370
ECCENTRICITY   = .0021896
INCLINATION    = 97.6147
RA_OF_ASC_NODE = 90.0088
ARG_OF_PERICENTER = 166.8285
MEAN_ANOMALY   = 193.3536

EPHEMERIS_TYPE = 0
CLASSIFICATION_TYPE = U
NORAD_CAT_ID   = 14208
ELEMENT_SET_NO = 999
REV_AT_EPOCH   = 33263
BSTAR          = .26737E-3
MEAN_MOTION_DOT = .1025E-3
MEAN_MOTION_DDOT = 0

CCSDS_OMM_VERS = 2.0
CREATION_DATE  = 
ORIGINATOR     = 

OBJECT_NAME    = COSMOS 1536
OBJECT_ID      = 1984-013A
CENTER_NAME    = EARTH
REF_FRAME      = TEME
TIME_SYSTEM    = UTC
MEAN_ELEMENT_THEORY = SGP/SGP4

EPOCH          = 2026-03-25T17:47:37.659840
MEAN_MOTION    = 15.24036786
ECCENTRICITY   = .0013057
INCLINATION    = 82.5420
RA_OF_ASC_NODE = 91.8876
ARG_OF_PERICENTER = 219.8237
MEAN_ANOMALY   = 140.2043

EPHEMERIS_TYPE = 0
CLASSIFICATION_TYPE = U
NORAD_CAT_ID   = 14699
ELEMENT_SET_NO = 999
REV_AT_EPOCH   = 27506
BSTAR          = .2635E-3
MEAN_MOTION_DOT = .6434E-4
MEAN_MOTION_DDOT = 0

CCSDS_OMM_VERS = 2.0
CREATION_DATE  = 
ORIGINATOR     = 

OBJECT_NAME    = SL-14 R/B
OBJECT_ID      = 1984-027B
CENTER_NAME    = EARTH
REF_FRAME      = TEME
TIME_SYSTEM    = UTC
MEAN_ELEMENT_THEORY = SGP/SGP4

EPOCH          = 2026-03-25T15:38:54.945312
MEAN_MOTION    = 14.85992360
ECCENTRICITY   = .0016491
INCLINATION    = 82.5409
RA_OF_ASC_NODE = 230.0399
ARG_OF_PERICENTER = 281.5821
MEAN_ANOMALY   = 78.3544

EPHEMERIS_TYPE = 0
CLASSIFICATION_TYPE = U
NORAD_CAT_ID   = 14820
ELEMENT_SET_NO = 999
REV_AT_EPOCH   = 25000
BSTAR          = .56047E-4
MEAN_MOTION_DOT = .515E-5
MEAN_MOTION_DDOT = 0

CCSDS_OMM_VERS = 2.0
CREATION_DATE  = 
ORIGINATOR     = 

OBJECT_NAME    = SL-8 R/B
OBJECT_ID      = 1985-006B
CENTER_NAME    = EARTH
REF_FRAME      = TEME
TIME_SYSTEM    = UTC
MEAN_ELEMENT_THEORY = SGP/SGP4

EPOCH          = 2026-03-25T10:50:01.740192
MEAN_MOTION    = 14.37794350
ECCENTRICITY   = .00178109
INCLINATION    = 74.0444
RA_OF_ASC_NODE = 232.1428
ARG_OF_PERICENTER = 145.5024
MEAN_ANOMALY   = 270.1591

EPHEMERIS_TYPE = 0
CLASSIFICATION_TYPE = U
NORAD_CAT_ID   = 15483
ELEMENT_SET_NO = 999
REV_AT_EPOCH   = 15629
BSTAR          = .11624805E-3
MEAN_MOTION_DOT = .325E-5
MEAN_MOTION_DDOT = 0

CCSDS_OMM_VERS = 2.0
CREATION_DATE  = 
ORIGINATOR     = 

OBJECT_NAME    = SL-12 R/B(2)
OBJECT_ID      = 1985-042D
CENTER_NAME    = EARTH
REF_FRAME      = TEME
TIME_SYSTEM    = UTC
MEAN_ELEMENT_THEORY = SGP/SGP4

EPOCH          = 2026-03-25T16:25:23.145024
MEAN_MOTION    = 14.21986803
ECCENTRICITY   = .0032858
INCLINATION    = 71.1079
RA_OF_ASC_NODE = 53.9337
ARG_OF_PERICENTER = 101.6116
MEAN_ANOMALY   = 70.3588

EPHEMERIS_TYPE = 0
CLASSIFICATION_TYPE = U
NORAD_CAT_ID   = 15772
ELEMENT_SET_NO = 999
REV_AT_EPOCH   = 11666
BSTAR          = .85184E-4
MEAN_MOTION_DOT = .142E-5
MEAN_MOTION_DDOT = 0

CCSDS_OMM_VERS = 2.0
CREATION_DATE  = 
ORIGINATOR     = 

OBJECT_NAME    = SL-14 R/B
OBJECT_ID      = 1985-069B
CENTER_NAME    = EARTH
REF_FRAME      = TEME
TIME_SYSTEM    = UTC
MEAN_ELEMENT_THEORY = SGP/SGP4

EPOCH          = 2026-03-25T11:56:08.574144
MEAN_MOTION    = 14.86449881
ECCENTRICITY   = .00198172
INCLINATION    = 82.5304
RA_OF_ASC_NODE = 10.0725
ARG_OF_PERICENTER = 136.5027
MEAN_ANOMALY   = 223.7757

EPHEMERIS_TYPE = 0
CLASSIFICATION_TYPE = U
NORAD_CAT_ID   = 15945
ELEMENT_SET_NO = 999
REV_AT_EPOCH   = 17518
BSTAR          = .54546168E-4
MEAN_MOTION_DOT = .508E-5
MEAN_MOTION_DDOT = 0

CCSDS_OMM_VERS = 2.0
CREATION_DATE  = 
ORIGINATOR     = 

OBJECT_NAME    = SL-16 R/B
OBJECT_ID      = 1985-097B
CENTER_NAME    = EARTH
REF_FRAME      = TEME
TIME_SYSTEM    = UTC
MEAN_ELEMENT_THEORY = SGP/SGP4

EPOCH          = 2026-03-25T19:49:06.617856
MEAN_MOTION    = 14.16603237
ECCENTRICITY   = .000951
INCLINATION    = 71.0009
RA_OF_ASC_NODE = 106.5820
ARG_OF_PERICENTER = 240.8578
MEAN_ANOMALY   = 292.0399

EPHEMERIS_TYPE = 0
CLASSIFICATION_TYPE = U
NORAD_CAT_ID   = 16182
ELEMENT_SET_NO = 999
REV_AT_EPOCH   = 8951
BSTAR          = .62135E-4
MEAN_MOTION_DOT = .76E-6
MEAN_MOTION_DDOT = 0

CCSDS_OMM_VERS = 2.0
CREATION_DATE  = 
ORIGINATOR     = 

OBJECT_NAME    = SL-14 R/B
OBJECT_ID      = 1986-006B
CENTER_NAME    = EARTH
REF_FRAME      = TEME
TIME_SYSTEM    = UTC
MEAN_ELEMENT_THEORY = SGP/SGP4

EPOCH          = 2026-03-25T09:40:21.296928
MEAN_MOTION    = 14.86838000
ECCENTRICITY   = .00755522
INCLINATION    = 82.5245
RA_OF_ASC_NODE = 244.9443
ARG_OF_PERICENTER = 219.7679
MEAN_ANOMALY   = 139.7986

EPHEMERIS_TYPE = 0
CLASSIFICATION_TYPE = U
NORAD_CAT_ID   = 16496
ELEMENT_SET_NO = 999
REV_AT_EPOCH   = 15154
BSTAR          = .87224118E-4
MEAN_MOTION_DOT = .845E-5
MEAN_MOTION_DDOT = 0

CCSDS_OMM_VERS = 2.0
CREATION_DATE  = 
ORIGINATOR     = 

OBJECT_NAME    = COSMOS 1743
OBJECT_ID      = 1986-034A
CENTER_NAME    = EARTH
REF_FRAME      = TEME
TIME_SYSTEM    = UTC
MEAN_ELEMENT_THEORY = SGP/SGP4

EPOCH          = 2026-03-25T08:47:10.150944
MEAN_MOTION    = 15.59802629
ECCENTRICITY   = .00035784
INCLINATION    = 82.5306
RA_OF_ASC_NODE = 57.3612
ARG_OF_PERICENTER = 182.1706
MEAN_ANOMALY   = 177.9536

EPHEMERIS_TYPE = 0
CLASSIFICATION_TYPE = U
NORAD_CAT_ID   = 16719
ELEMENT_SET_NO = 999
REV_AT_EPOCH   = 18269
BSTAR          = .50875442E-3
MEAN_MOTION_DOT = .4095E-3
MEAN_MOTION_DDOT = 0

